MEAN_MOTION;ECCENTRICITY;INCLINATION;RA_OF_ASC_NODE;ARG_OF_PERICENTER;MEAN_ANOMALY;BSTAR;MEAN_MOTION_DOT;MEAN_MOTION_DDOT;TYPE
1.00274283;8.2E-5;8.5805;41.8487;333.8492;227.1704;0;-2.26E-6;0;Weather
1.00273992;8.78E-5;8.5816;41.8443;334.8402;149.4125;0;-2.28E-6;0;Weather
1.00273921;8.99E-5;8.5819;41.8433;336.201;231.4456;0;-2.29E-6;0;Weather
1.00273645;9.66E-5;8.5831;41.8387;338.5598;171.3678;0;-2.3E-6;0;Weather
1.00273629;9.7E-5;8.5832;41.8384;339.0282;193.7925;0;-2.31E-6;0;Weather
1.00273412;0.000103;8.5843;41.8343;341.7922;104.7244;0;-2.33E-6;0;Weather
1.0027335;0.0001049;8.5846;41.8332;343.0906;192.5556;0;-2.33E-6;0;Weather
1.00273324;0.0001054;8.5848;41.8325;343.8535;234.4979;0;-2.33E-6;0;Weather
1.00273213;0.0001086;8.5855;41.8302;345.4691;37.4806;0;-2.34E-6;0;Weather
1.00273014;0.000116;8.587;41.8246;349.7491;56.3417;0;-2.35E-6;0;Weather
1.00272955;0.000119;8.5876;41.8227;351.5453;189.7218;0;-2.36E-6;0;Weather
1.00272851;0.0001243;8.5887;41.8183;354.9106;122.9905;0;-2.36E-6;0;Weather
1.0027283;0.0001252;8.589;41.8174;355.8918;188.1832;0;-2.36E-6;0;Weather
1.00272744;0.0001304;8.5904;41.8121;359.9337;179.5461;0;-2.36E-6;0;Weather
1.00272676;0.0001351;8.5918;41.8064;4.2625;181.0684;0;-2.36E-6;0;Weather
1.00272668;0.000135;8.5919;41.8058;4.5489;215.1056;0;-2.35E-6;0;Weather
1.00272616;0.0001383;8.5931;41.8006;8.1844;176.0587;0;-2.35E-6;0;Weather
1.00272599;0.0001384;8.5934;41.7994;8.6656;241.1262;0;-2.34E-6;0;Weather
1.00272546;0.0001399;8.5945;41.7945;11.7251;174.8119;0;-2.34E-6;0;Weather
1.00272495;0.0001398;8.5954;41.7901;13.8385;64.2885;0;-2.33E-6;0;Weather
1.00272456;0.0001401;8.5959;41.7881;15.074;183.0639;0;-2.33E-6;0;Weather
1.00272408;0.0001393;8.5965;41.7854;15.778;337.859;0;-2.32E-6;0;Weather
1.00272351;0.0001387;8.5971;41.7823;17.783;157.2705;0;-2.31E-6;0;Weather
1.00272342;0.0001386;8.5972;41.7818;17.9254;183.0142;0;-2.32E-6;0;Weather
1.00272261;0.0001369;8.598;41.7778;19.1066;50.5177;0;-2.31E-6;0;Weather
1.00272205;0.0001361;8.5985;41.7757;20.2871;171.0087;0;-2.3E-6;0;Weather
1.00272205;0.0001361;8.5985;41.7757;20.2871;171.0087;0;-2.3E-6;0;Weather
1.00272099;0.0001337;8.5993;41.7713;21.2204;54.1555;0;-2.29E-6;0;Weather
1.00272043;0.0001324;8.5997;41.7695;22.1322;158.4669;0;-2.29E-6;0;Weather
1.00271848;0.0001281;8.601;41.7628;23.7035;163.0559;0;-2.27E-6;0;Weather
1.00271821;0.0001277;8.6011;41.762;23.9423;212.1346;0;-2.26E-6;0;Weather
1.00271632;0.0001234;8.6022;41.7563;24.8062;161.4115;0;-2.25E-6;0;Weather
1.00271596;0.0001227;8.6024;41.7553;25.0399;217.3674;0;-2.24E-6;0;Weather
1.00271391;0.0001177;8.6035;41.7496;25.2096;163.814;0;-2.22E-6;0;Weather
1.00271351;0.000117;8.6037;41.7485;25.4659;222.0933;0;-2.22E-6;0;Weather
1.0027113;0.0001126;8.6047;41.7429;25.1566;166.6619;0;-2.2E-6;0;Weather
1.00270869;0.0001076;8.6059;41.7368;24.4035;144.3326;0;-2.18E-6;0;Weather
1.00270849;0.0001071;8.606;41.7363;24.378;170.2597;0;-2.18E-6;0;Weather
1.00270567;0.0001032;8.6072;41.7304;23.1892;148.3361;0;-2.16E-6;0;Weather
1.00270546;0.0001028;8.6073;41.7299;23.0514;174.391;0;-2.16E-6;0;Weather
1.00270382;0.0001008;8.6079;41.7266;22.773;356.057;0;-2.16E-6;0;Weather
1.00270217;9.91E-5;8.6086;41.7234;20.8836;184.7997;0;-2.15E-6;0;Weather
1.00270002;9.7E-5;8.6094;41.7194;19.993;52.5329;0;-2.14E-6;0;Weather
1.00269879;9.67E-5;8.6099;41.7173;18.2934;184.7461;0;-2.14E-6;0;Weather
1.00269846;9.64E-5;8.61;41.7166;17.9639;219.8388;0;-2.14E-6;0;Weather
1.00269511;9.57E-5;8.6112;41.711;15.1209;198.9009;0;-2.14E-6;0;Weather
1.00269467;9.58E-5;8.6114;41.7103;14.722;241.7025;0;-2.14E-6;0;Weather
1.0026917;9.63E-5;8.6124;41.7057;12.4058;170.3065;0;-2.14E-6;0;Weather
1.00268912;9.7E-5;8.6133;41.7019;10.7686;51.9219;0;-2.15E-6;0;Weather
1.00268747;0.0001002;8.6139;41.6995;9.4497;212.8639;0;-2.16E-6;0;Weather
1.00268399;0.0001041;8.6152;41.6947;7.4995;180.7966;0;-2.17E-6;0;Weather
1.00268358;0.0001052;8.6153;41.6942;7.4021;219.9304;0;-2.18E-6;0;Weather
1.00268018;0.0001103;8.6165;41.6895;6.0036;186.7144;0;-2.2E-6;0;Weather
1.0026795;0.0001123;8.6168;41.6884;6.1225;251.9028;0;-2.2E-6;0;Weather
1.00267667;0.0001176;8.6179;41.6845;5.6036;175.8928;0;-2.22E-6;0;Weather
1.00267436;0.000123;8.6187;41.6812;5.6516;55.8263;0;-2.24E-6;0;Weather
1.00267322;0.0001267;8.6193;41.6793;6.1597;190.5024;0;-2.25E-6;0;Weather
1.00267123;0.0001322;8.6201;41.676;6.5882;60.2414;0;-2.26E-6;0;Weather
1.00267071;0.000134;8.6204;41.6749;6.7677;129.0594;0;-2.27E-6;0;Weather
1.00273484;7.1E-5;8.6212;41.6735;355.2655;255.2647;0;-2.28E-6;0;Weather
1.00275445;9.14E-5;8.6223;41.6696;358.6386;203.6725;0;-2.31E-6;0;Weather
1.00275428;9.19E-5;8.6223;41.6692;359.2005;232.1077;0;-2.31E-6;0;Weather
1.00275248;9.9E-5;8.6235;41.6648;3.5464;175.6845;0;-2.32E-6;0;Weather
1.0027508;0.0001077;8.6249;41.6597;9.5703;172.4419;0;-2.33E-6;0;Weather
1.00274961;0.0001124;8.6258;41.6558;12.3361;79.0083;0;-2.33E-6;0;Weather
1.0027486;0.0001193;8.6276;41.6492;16.9549;172.7561;0;-2.33E-6;0;Weather
1.00274778;0.0001253;8.6289;41.6438;21.7306;168.7669;0;-2.32E-6;0;Weather
1.00274765;0.0001244;8.6293;41.6422;22.0917;259.1358;0;-2.32E-6;0;Weather
1.00274718;0.0001281;8.6303;41.6379;25.062;176.4561;0;-2.32E-6;0;Weather
1.0027467;0.0001295;8.6312;41.6338;27.7612;63.0509;0;-2.31E-6;0;Weather
1.00274629;0.0001305;8.6317;41.6316;29.1088;197.4797;0;-2.31E-6;0;Weather
1.00274585;0.00013;8.6324;41.6282;30.6325;39.818;0;-2.3E-6;0;Weather
1.00274541;0.0001308;8.6329;41.6261;32.1782;166.7538;0;-2.29E-6;0;Weather
1.00274472;0.0001292;8.6338;41.6222;33.749;41.0853;0;-2.29E-6;0;Weather
1.0027442;0.0001289;8.6342;41.6201;35.1038;166.5993;0;-2.28E-6;0;Weather
1.00274326;0.0001276;8.6351;41.6161;36.9265;45.5322;0;-2.27E-6;0;Weather
1.00274279;0.0001275;8.6354;41.6145;38.1864;140.4695;0;-2.27E-6;0;Weather
1.00274085;0.0001242;8.6368;41.6077;41.0738;176.864;0;-2.25E-6;0;Weather
1.00273899;0.0001208;8.6379;41.602;43.3095;146.3972;0;-2.23E-6;0;Weather
1.00273755;0.0001177;8.6387;41.5978;44.1857;30.6766;0;-2.21E-6;0;Weather
1.00273674;0.0001157;8.6391;41.5956;45.1997;147.9929;0;-2.21E-6;0;Weather
1.00273432;0.0001103;8.6403;41.5894;46.6012;139.8168;0;-2.19E-6;0;Weather
1.00273159;0.000105;8.6415;41.583;47.9063;144.7583;0;-2.16E-6;0;Weather
1.00272865;9.93E-5;8.6428;41.5768;48.2498;147.2278;0;-2.15E-6;0;Weather
1.00272709;9.56E-5;8.6434;41.5737;48.141;328.7577;0;-2.14E-6;0;Weather
1.00272554;9.27E-5;8.644;41.5707;47.481;150.8122;0;-2.13E-6;0;Weather
1.00272482;9.11E-5;8.6443;41.5693;47.3901;231.2476;0;-2.13E-6;0;Weather
1.00272219;8.75E-5;8.6453;41.5647;46.2309;154.8523;0;-2.12E-6;0;Weather
1.00272039;8.47E-5;8.6459;41.5618;45.9191;336.5703;0;-2.12E-6;0;Weather
1.0027189;8.29E-5;8.6465;41.5593;43.9225;134.9268;0;-2.12E-6;0;Weather
1.00271779;8.15E-5;8.6469;41.5575;42.9122;245.6097;0;-2.11E-6;0;Weather
1.00271522;7.97E-5;8.6478;41.5537;40.9703;139.8215;0;-2.12E-6;0;Weather
1.00271141;7.9E-5;8.6491;41.5483;37.7594;145.8584;0;-2.13E-6;0;Weather
1.00270757;8.02E-5;8.6504;41.5431;34.2929;152.1014;0;-2.14E-6;0;Weather
1.00270376;8.35E-5;8.6517;41.538;30.854;158.3423;0;-2.16E-6;0;Weather
1.00270273;8.54E-5;8.652;41.5365;30.0873;256.5773;0;-2.17E-6;0;Weather
1.00269998;8.93E-5;8.6531;41.5329;28.4138;176.1778;0;-2.19E-6;0;Weather
1.00269657;9.66E-5;8.6544;41.528;27.3531;179.2773;0;-2.22E-6;0;Weather
1.00269617;9.81E-5;8.6545;41.5273;27.4981;225.5952;0;-2.22E-6;0;Weather
1.00269595;9.85E-5;8.6546;41.5269;27.3611;250.1018;0;-2.23E-6;0;Weather
1.0026933;0.0001056;8.6557;41.5227;27.0879;209.1522;0;-2.24E-6;0;Weather
1.0026913;0.0001114;8.6567;41.5189;26.5085;113.504;0;-2.26E-6;0;Weather
1.00269052;0.0001146;8.6571;41.5173;27.729;234.6545;0;-2.27E-6;0;Weather
1.00269019;0.0001155;8.6573;41.5165;27.68;281.9942;0;-2.27E-6;0;Weather
1.00268862;0.0001223;8.6582;41.5132;28.6072;174.5529;0;-2.28E-6;0;Weather
1.00268781;0.0001259;8.6588;41.5109;29.6866;326.9735;0;-2.28E-6;0;Weather
1.00268675;0.0001315;8.6596;41.5078;30.5938;188.7578;0;-2.29E-6;0;Weather
1.00268582;0.0001377;8.6604;41.5042;31.4958;68.8235;0;-2.29E-6;0;Weather
1.00268544;0.0001399;8.6608;41.5029;32.2789;162.788;0;-2.29E-6;0;Weather
1.00268434;0.0001479;8.662;41.4976;34.7349;150.9143;0;-2.29E-6;0;Weather
1.00268344;0.0001547;8.6633;41.4923;37.1904;141.3887;0;-2.29E-6;0;Weather
1.00268313;0.000155;8.6638;41.4901;37.9623;275.6508;0;-2.28E-6;0;Weather
1.00268259;0.00016;8.6646;41.4865;39.7983;151.4253;0;-2.28E-6;0;Weather
1.00268203;0.000163;8.6656;41.4822;41.8145;57.7073;0;-2.27E-6;0;Weather
1.00268174;0.0001642;8.6659;41.4807;42.5586;151.4316;0;-2.27E-6;0;Weather
1.00277585;0.0001397;8.6661;41.4814;24.974;252.4979;0;-2.29E-6;0;Weather
1.00276062;0.0001297;8.6673;41.4757;30.0736;198.9581;0;-2.28E-6;0;Weather
1.00275887;0.000126;8.6687;41.469;33.9752;229.6653;0;-2.27E-6;0;Weather
1.00275835;0.000126;8.6689;41.4681;35.2229;277.4727;0;-2.26E-6;0;Weather
1.00275742;0.0001245;8.6696;41.4644;38.1268;138.438;0;-2.26E-6;0;Weather
1.00275667;0.0001227;8.6702;41.4611;38.2315;324.0688;0;-2.25E-6;0;Weather
1.00275585;0.0001208;8.6708;41.4582;40.2341;139.1671;0;-2.24E-6;0;Weather
1.00275434;0.000118;8.6717;41.4536;42.8571;59.0511;0;-2.23E-6;0;Weather
1.00275388;0.000117;8.672;41.4521;43.8253;138.3651;0;-2.23E-6;0;Weather
1.00275179;0.0001122;8.6732;41.4459;46.3536;138.6516;0;-2.2E-6;0;Weather
1.00274947;0.0001068;8.6743;41.4395;48.9044;138.9405;0;-2.18E-6;0;Weather
1.00274692;0.0001005;8.6755;41.4333;50.5298;140.1161;0;-2.16E-6;0;Weather
1.00274417;9.45E-5;8.6766;41.4271;51.8982;133.5304;0;-2.15E-6;0;Weather
1.0027432;9.24E-5;8.677;41.4251;52.1974;255.3573;0;-2.14E-6;0;Weather
1.00274108;8.77E-5;8.6778;41.4208;52.1475;144.1145;0;-2.13E-6;0;Weather
1.00274006;8.59E-5;8.6782;41.4188;52.5594;260.1509;0;-2.12E-6;0;Weather
1.00273781;8.16E-5;8.679;41.4147;51.7373;147.2982;0;-2.12E-6;0;Weather
1.00273669;7.96E-5;8.6794;41.4128;51.7206;266.4014;0;-2.11E-6;0;Weather
1.00273081;7.19E-5;8.6814;41.4036;48.4757;140.0633;0;-2.11E-6;0;Weather
1.00272738;6.87E-5;8.6825;41.3986;45.8293;108.5733;0;-2.12E-6;0;Weather
1.00272567;6.82E-5;8.6831;41.3963;43.4853;267.1146;0;-2.12E-6;0;Weather
